ISS OBJECT XW           
1 66910U 98067XW  26053.26579579  .00116878  00000+0  11799-2 0  9997
2 66910  51.6248 143.9045 0003850  10.7232 349.3844 15.64464608 12762
ISS OBJECT XX           
1 66911U 98067XX  26053.95615663  .00179139  00000+0  15042-2 0  9993
2 66911  51.6231 139.5075 0006003   6.7914 353.3163 15.68794317 12872
ISS OBJECT XY           
1 66912U 98067XY  26053.29255926  .00082068  00000+0  96049-3 0  9994
2 66912  51.6274 144.8438 0001902  15.9273 344.1780 15.60836405 12741
ISS OBJECT XZ           
1 67683U 98067XZ  26053.26547080  .00041343  00000+0  71406-3 0  9993
2 67683  51.6314 148.4121 0010005 134.8539 225.3264 15.50521186  2394
GXIBA-1                 
1 67684U 98067YA  26053.64308545  .00079428  00000+0  12925-2 0  9992
2 67684  51.6313 146.4331 0011656 128.7037 231.4997 15.51889665  2451
CORAL                   
1 67685U 98067YB  26053.84384527  .00046938  00000+0  80080-3 0  9997
2 67685  51.6309 145.5236 0011911 133.1205 227.0782 15.50787508  2480
ISS OBJECT YC           
1 67686U 98067YC  26053.26221280  .00051037  00000+0  86445-3 0  9997
2 67686  51.6313 148.3904 0007687 102.1024 258.0828 15.50999605  2397
LEOPARD                 
1 67687U 98067YD  26053.71565522  .00045416  00000+0  77931-3 0  9992
2 67687  51.6314 146.1685 0007767 106.0969 254.0876 15.50684612  2388
ISS OBJECT YE           
1 67688U 98067YE  26053.26289915  .00047740  00000+0  81295-3 0  9992
2 67688  51.6324 148.3958 0007695 103.3001 256.8847 15.50878079  2317
CREW DRAGON 12          
1 67796U 26031A   26053.73352465  .00014029  00000+0  26931-3 0  9997
2 67796  51.6318 146.2856 0008481 123.1422 237.0381 15.48216789553984
